[{"OBJECT_NAME":"STARLINK-3789","OBJECT_ID":"2022-041Y","EPOCH":"2025-12-14T03:33:20.718144","MEAN_MOTION":15.08836614,"ECCENTRICITY":0.00015079,"INCLINATION":53.217,"RA_OF_ASC_NODE":133.1302,"ARG_OF_PERICENTER":85.4976,"MEAN_ANOMALY":274.6189,"EPHEMERIS_TYPE":0,"CLASSIFICATION_TYPE":"U","NORAD_CAT_ID":52283,"ELEMENT_SET_NO":999,"REV_AT_EPOCH":20145,"BSTAR":7.4271488e-5,"MEAN_MOTION_DOT":8.94e-6,"MEAN_MOTION_DDOT":0},{"OBJECT_NAME":"STARLINK-3561","OBJECT_ID":"2022-041Z","EPOCH":"2025-12-13T19:05:59.095104","MEAN_MOTION":15.08793496,"ECCENTRICITY":0.000108,"INCLINATION":53.2187,"RA_OF_ASC_NODE":124.7111,"ARG_OF_PERICENTER":111.9744,"MEAN_ANOMALY":248.1363,"EPHEMERIS_TYPE":0,"CLASSIFICATION_TYPE":"U","NORAD_CAT_ID":52284,"ELEMENT_SET_NO":999,"REV_AT_EPOCH":20153,"BSTAR":-0.00028803938,"MEAN_MOTION_DOT":-4.863e-5,"MEAN_MOTION_DDOT":0},{"OBJECT_NAME":"STARLINK-3802","OBJECT_ID":"2022-041AB","EPOCH":"2025-12-14T02:52:16.600512","MEAN_MOTION":15.08820984,"ECCENTRICITY":0.00012534,"INCLINATION":53.2172,"RA_OF_ASC_NODE":123.2595,"ARG_OF_PERICENTER":86.2551,"MEAN_ANOMALY":273.8584,"EPHEMERIS_TYPE":0,"CLASSIFICATION_TYPE":"U","NORAD_CAT_ID":52286,"ELEMENT_SET_NO":999,"REV_AT_EPOCH":20158,"BSTAR":-7.2603661e-5,"MEAN_MOTION_DOT":-1.443e-5,"MEAN_MOTION_DDOT":0},{"OBJECT_NAME":"STARLINK-3822","OBJECT_ID":"2022-041AC","EPOCH":"2025-12-14T03:17:26.626272","MEAN_MOTION":15.08841798,"ECCENTRICITY":0.00013153,"INCLINATION":53.2173,"RA_OF_ASC_NODE":133.1816,"ARG_OF_PERICENTER":87.0874,"MEAN_ANOMALY":273.0269,"EPHEMERIS_TYPE":0,"CLASSIFICATION_TYPE":"U","NORAD_CAT_ID":52287,"ELEMENT_SET_NO":999,"REV_AT_EPOCH":20145,"BSTAR":5.9979186e-5,"MEAN_MOTION_DOT":6.67e-6,"MEAN_MOTION_DDOT":0},{"OBJECT_NAME":"STARLINK-3776","OBJECT_ID":"2022-041AD","EPOCH":"2025-12-14T02:46:58.384128","MEAN_MOTION":15.08841548,"ECCENTRICITY":0.00013415,"INCLINATION":53.2176,"RA_OF_ASC_NODE":123.276,"ARG_OF_PERICENTER":80.2069,"MEAN_ANOMALY":279.9075,"EPHEMERIS_TYPE":0,"CLASSIFICATION_TYPE":"U","NORAD_CAT_ID":52288,"ELEMENT_SET_NO":999,"REV_AT_EPOCH":20158,"BSTAR":9.7674576e-5,"MEAN_MOTION_DOT":1.267e-5,"MEAN_MOTION_DDOT":0},{"OBJECT_NAME":"STARLINK-3751","OBJECT_ID":"2022-041AE","EPOCH":"2025-12-13T20:46:37.653312","MEAN_MOTION":15.08832986,"ECCENTRICITY":0.00013092,"INCLINATION":53.2172,"RA_OF_ASC_NODE":124.3983,"ARG_OF_PERICENTER":86.869,"MEAN_ANOMALY":273.2452,"EPHEMERIS_TYPE":0,"CLASSIFICATION_TYPE":"U","NORAD_CAT_ID":52289,"ELEMENT_SET_NO":999,"REV_AT_EPOCH":20154,"BSTAR":0.00014846058,"MEAN_MOTION_DOT":2.075e-5,"MEAN_MOTION_DDOT":0},{"OBJECT_NAME":"STARLINK-3772","OBJECT_ID":"2022-041AF","EPOCH":"2025-12-14T02:32:27.588768","MEAN_MOTION":15.08833601,"ECCENTRICITY":0.0001113,"INCLINATION":53.2166,"RA_OF_ASC_NODE":123.3192,"ARG_OF_PERICENTER":91.7203,"MEAN_ANOMALY":268.3917,"EPHEMERIS_TYPE":0,"CLASSIFICATION_TYPE":"U","NORAD_CAT_ID":52290,"ELEMENT_SET_NO":999,"REV_AT_EPOCH":20158,"BSTAR":-7.8709235e-5,"MEAN_MOTION_DOT":-1.54e-5,"MEAN_MOTION_DDOT":0},{"OBJECT_NAME":"STARLINK-3753","OBJECT_ID":"2022-041AH","EPOCH":"2025-12-14T02:25:47.074656","MEAN_MOTION":15.0883664,"ECCENTRICITY":0.00012642,"INCLINATION":53.2173,"RA_OF_ASC_NODE":123.3392,"ARG_OF_PERICENTER":89.6947,"MEAN_ANOMALY":270.419,"EPHEMERIS_TYPE":0,"CLASSIFICATION_TYPE":"U","NORAD_CAT_ID":52292,"ELEMENT_SET_NO":999,"REV_AT_EPOCH":20158,"BSTAR":7.4924131e-5,"MEAN_MOTION_DOT":9.05e-6,"MEAN_MOTION_DDOT":0},{"OBJECT_NAME":"STARLINK-3771","OBJECT_ID":"2022-041AJ","EPOCH":"2025-12-14T02:43:03.600768","MEAN_MOTION":15.08830312,"ECCENTRICITY":7.275e-5,"INCLINATION":53.2176,"RA_OF_ASC_NODE":123.2978,"ARG_OF_PERICENTER":92.7809,"MEAN_ANOMALY":267.3267,"EPHEMERIS_TYPE":0,"CLASSIFICATION_TYPE":"U","NORAD_CAT_ID":52293,"ELEMENT_SET_NO":999,"REV_AT_EPOCH":20158,"BSTAR":-9.784718e-6,"MEAN_MOTION_DOT":-4.43e-6,"MEAN_MOTION_DDOT":0},{"OBJECT_NAME":"STARLINK-3777","OBJECT_ID":"2022-041AK","EPOCH":"2025-12-14T08:42:02.455488","MEAN_MOTION":15.08837436,"ECCENTRICITY":0.00012503,"INCLINATION":53.2176,"RA_OF_ASC_NODE":122.1651,"ARG_OF_PERICENTER":85.2396,"MEAN_ANOMALY":274.8739,"EPHEMERIS_TYPE":0,"CLASSIFICATION_TYPE":"U","NORAD_CAT_ID":52294,"ELEMENT_SET_NO":999,"REV_AT_EPOCH":20162,"BSTAR":0.00010593251,"MEAN_MOTION_DOT":1.398e-5,"MEAN_MOTION_DDOT":0},{"OBJECT_NAME":"STARLINK-3765","OBJECT_ID":"2022-041AL","EPOCH":"2025-12-14T02:36:22.938912","MEAN_MOTION":15.08839223,"ECCENTRICITY":0.00014642,"INCLINATION":53.2183,"RA_OF_ASC_NODE":123.3067,"ARG_OF_PERICENTER":87.9213,"MEAN_ANOMALY":272.1947,"EPHEMERIS_TYPE":0,"CLASSIFICATION_TYPE":"U","NORAD_CAT_ID":52295,"ELEMENT_SET_NO":999,"REV_AT_EPOCH":20158,"BSTAR":0.00011958114,"MEAN_MOTION_DOT":1.616e-5,"MEAN_MOTION_DDOT":0},{"OBJECT_NAME":"STARLINK-3766","OBJECT_ID":"2022-041AM","EPOCH":"2025-12-14T02:04:35.369472","MEAN_MOTION":15.08826068,"ECCENTRICITY":0.00012546,"INCLINATION":53.2164,"RA_OF_ASC_NODE":123.407,"ARG_OF_PERICENTER":86.326,"MEAN_ANOMALY":273.7875,"EPHEMERIS_TYPE":0,"CLASSIFICATION_TYPE":"U","NORAD_CAT_ID":52296,"ELEMENT_SET_NO":999,"REV_AT_EPOCH":20158,"BSTAR":9.7010735e-5,"MEAN_MOTION_DOT":1.256e-5,"MEAN_MOTION_DDOT":0},{"OBJECT_NAME":"STARLINK-3758","OBJECT_ID":"2022-041AN","EPOCH":"2025-12-14T02:31:04.155744","MEAN_MOTION":15.08841942,"ECCENTRICITY":0.000116,"INCLINATION":53.2177,"RA_OF_ASC_NODE":123.3211,"ARG_OF_PERICENTER":93.193,"MEAN_ANOMALY":266.9195,"EPHEMERIS_TYPE":0,"CLASSIFICATION_TYPE":"U","NORAD_CAT_ID":52297,"ELEMENT_SET_NO":999,"REV_AT_EPOCH":20158,"BSTAR":8.7998751e-5,"MEAN_MOTION_DOT":1.113e-5,"MEAN_MOTION_DDOT":0},{"OBJECT_NAME":"STARLINK-3760","OBJECT_ID":"2022-041AP","EPOCH":"2025-12-14T02:41:35.809728","MEAN_MOTION":15.08852002,"ECCENTRICITY":0.00011015,"INCLINATION":53.2168,"RA_OF_ASC_NODE":122.9063,"ARG_OF_PERICENTER":89.628,"MEAN_ANOMALY":270.4839,"EPHEMERIS_TYPE":0,"CLASSIFICATION_TYPE":"U","NORAD_CAT_ID":52298,"ELEMENT_SET_NO":999,"REV_AT_EPOCH":20159,"BSTAR":0.00031943572,"MEAN_MOTION_DOT":4.801e-5,"MEAN_MOTION_DDOT":0},{"OBJECT_NAME":"STARLINK-3769","OBJECT_ID":"2022-041AR","EPOCH":"2025-12-14T01:48:40.704768","MEAN_MOTION":15.08837888,"ECCENTRICITY":8.399e-5,"INCLINATION":53.216,"RA_OF_ASC_NODE":123.4564,"ARG_OF_PERICENTER":91.8707,"MEAN_ANOMALY":268.2382,"EPHEMERIS_TYPE":0,"CLASSIFICATION_TYPE":"U","NORAD_CAT_ID":52300,"ELEMENT_SET_NO":999,"REV_AT_EPOCH":20280,"BSTAR":4.4153076e-5,"MEAN_MOTION_DOT":4.15e-6,"MEAN_MOTION_DDOT":0},{"OBJECT_NAME":"STARLINK-3768","OBJECT_ID":"2022-041AS","EPOCH":"2025-12-14T02:15:10.994400","MEAN_MOTION":15.0883425,"ECCENTRICITY":0.00012232,"INCLINATION":53.2177,"RA_OF_ASC_NODE":123.3716,"ARG_OF_PERICENTER":84.0132,"MEAN_ANOMALY":276.1,"EPHEMERIS_TYPE":0,"CLASSIFICATION_TYPE":"U","NORAD_CAT_ID":52301,"ELEMENT_SET_NO":999,"REV_AT_EPOCH":20158,"BSTAR":7.0626817e-5,"MEAN_MOTION_DOT":8.36e-6,"MEAN_MOTION_DDOT":0},{"OBJECT_NAME":"STARLINK-3564","OBJECT_ID":"2022-041AT","EPOCH":"2025-12-13T19:12:34.675776","MEAN_MOTION":15.08835492,"ECCENTRICITY":0.00012592,"INCLINATION":53.2177,"RA_OF_ASC_NODE":114.691,"ARG_OF_PERICENTER":84.7954,"MEAN_ANOMALY":275.3182,"EPHEMERIS_TYPE":0,"CLASSIFICATION_TYPE":"U","NORAD_CAT_ID":52302,"ELEMENT_SET_NO":999,"REV_AT_EPOCH":20167,"BSTAR":7.3650987e-5,"MEAN_MOTION_DOT":8.84e-6,"MEAN_MOTION_DDOT":0},{"OBJECT_NAME":"STARLINK-3742","OBJECT_ID":"2022-041AU","EPOCH":"2025-12-14T01:53:59.070624","MEAN_MOTION":15.08839065,"ECCENTRICITY":0.00010473,"INCLINATION":53.2171,"RA_OF_ASC_NODE":123.4393,"ARG_OF_PERICENTER":79.031,"MEAN_ANOMALY":281.08,"EPHEMERIS_TYPE":0,"CLASSIFICATION_TYPE":"U","NORAD_CAT_ID":52303,"ELEMENT_SET_NO":999,"REV_AT_EPOCH":20280,"BSTAR":0.00010022011,"MEAN_MOTION_DOT":1.308e-5,"MEAN_MOTION_DDOT":0},{"OBJECT_NAME":"STARLINK-3744","OBJECT_ID":"2022-041AV","EPOCH":"2025-12-14T01:28:49.387008","MEAN_MOTION":15.08828726,"ECCENTRICITY":0.00012984,"INCLINATION":53.2171,"RA_OF_ASC_NODE":113.518,"ARG_OF_PERICENTER":82.5448,"MEAN_ANOMALY":277.5691,"EPHEMERIS_TYPE":0,"CLASSIFICATION_TYPE":"U","NORAD_CAT_ID":52304,"ELEMENT_SET_NO":999,"REV_AT_EPOCH":20171,"BSTAR":0.00011141573,"MEAN_MOTION_DOT":1.485e-5,"MEAN_MOTION_DDOT":0},{"OBJECT_NAME":"STARLINK-3724","OBJECT_ID":"2022-041AW","EPOCH":"2025-12-14T08:20:51.312768","MEAN_MOTION":15.08828341,"ECCENTRICITY":0.00016941,"INCLINATION":53.217,"RA_OF_ASC_NODE":122.3384,"ARG_OF_PERICENTER":82.7032,"MEAN_ANOMALY":277.4153,"EPHEMERIS_TYPE":0,"CLASSIFICATION_TYPE":"U","NORAD_CAT_ID":52305,"ELEMENT_SET_NO":999,"REV_AT_EPOCH":20162,"BSTAR":2.0019488e-5,"MEAN_MOTION_DOT":3.0e-7,"MEAN_MOTION_DDOT":0},{"OBJECT_NAME":"STARLINK-3747","OBJECT_ID":"2022-041AX","EPOCH":"2025-12-14T01:23:32.161632","MEAN_MOTION":15.08822147,"ECCENTRICITY":0.00017261,"INCLINATION":53.2173,"RA_OF_ASC_NODE":113.5326,"ARG_OF_PERICENTER":75.7099,"MEAN_ANOMALY":284.4085,"EPHEMERIS_TYPE":0,"CLASSIFICATION_TYPE":"U","NORAD_CAT_ID":52306,"ELEMENT_SET_NO":999,"REV_AT_EPOCH":20293,"BSTAR":2.107977e-6,"MEAN_MOTION_DOT":-2.55e-6,"MEAN_MOTION_DDOT":0},{"OBJECT_NAME":"STARLINK-3755","OBJECT_ID":"2022-041AY","EPOCH":"2025-12-14T08:04:55.789248","MEAN_MOTION":15.08837207,"ECCENTRICITY":0.00011992,"INCLINATION":53.217,"RA_OF_ASC_NODE":122.2849,"ARG_OF_PERICENTER":91.2025,"MEAN_ANOMALY":268.9105,"EPHEMERIS_TYPE":0,"CLASSIFICATION_TYPE":"U","NORAD_CAT_ID":52307,"ELEMENT_SET_NO":999,"REV_AT_EPOCH":20162,"BSTAR":0.00011010504,"MEAN_MOTION_DOT":1.465e-5,"MEAN_MOTION_DDOT":0},{"OBJECT_NAME":"STARLINK-3756","OBJECT_ID":"2022-041BA","EPOCH":"2025-12-14T01:18:12.655296","MEAN_MOTION":15.08838656,"ECCENTRICITY":0.00011947,"INCLINATION":53.2178,"RA_OF_ASC_NODE":113.5499,"ARG_OF_PERICENTER":82.9471,"MEAN_ANOMALY":277.1657,"EPHEMERIS_TYPE":0,"CLASSIFICATION_TYPE":"U","NORAD_CAT_ID":52309,"ELEMENT_SET_NO":999,"REV_AT_EPOCH":20293,"BSTAR":5.9526123e-5,"MEAN_MOTION_DOT":6.6e-6,"MEAN_MOTION_DDOT":0}]
